[{"OBJECT_NAME":"STARLINK-1677","OBJECT_ID":"2020-070AW","EPOCH":"2026-01-24T20:53:31.957728","MEAN_MOTION":15.48825453,"ECCENTRICITY":0.000904,"INCLINATION":53.048,"RA_OF_ASC_NODE":336.4396,"ARG_OF_PERICENTER":44.6624,"MEAN_ANOMALY":315.511,"EPHEMERIS_TYPE":0,"CLASSIFICATION_TYPE":"U","NORAD_CAT_ID":46576,"ELEMENT_SET_NO":999,"REV_AT_EPOCH":29342,"BSTAR":0.0012374962,"MEAN_MOTION_DOT":0.00067911,"MEAN_MOTION_DDOT":0},{"OBJECT_NAME":"STARLINK-1683","OBJECT_ID":"2020-070AY","EPOCH":"2026-01-24T00:22:52.982400","MEAN_MOTION":15.62105365,"ECCENTRICITY":0.00074471,"INCLINATION":53.0179,"RA_OF_ASC_NODE":293.0802,"ARG_OF_PERICENTER":108.2913,"MEAN_ANOMALY":251.891,"EPHEMERIS_TYPE":0,"CLASSIFICATION_TYPE":"U","NORAD_CAT_ID":46578,"ELEMENT_SET_NO":999,"REV_AT_EPOCH":29395,"BSTAR":0.0023242516,"MEAN_MOTION_DOT":0.00212715,"MEAN_MOTION_DDOT":0},{"OBJECT_NAME":"STARLINK-1712","OBJECT_ID":"2020-070BB","EPOCH":"2026-01-25T00:00:04.000320","MEAN_MOTION":15.69574691,"ECCENTRICITY":0.00148202,"INCLINATION":53.0432,"RA_OF_ASC_NODE":300.781,"ARG_OF_PERICENTER":100.095,"MEAN_ANOMALY":280.4165,"EPHEMERIS_TYPE":0,"CLASSIFICATION_TYPE":"U","NORAD_CAT_ID":46581,"ELEMENT_SET_NO":999,"REV_AT_EPOCH":574,"BSTAR":0.0017619105,"MEAN_MOTION_DOT":0.00218547,"MEAN_MOTION_DDOT":0},{"OBJECT_NAME":"STARLINK-1728","OBJECT_ID":"2020-070BC","EPOCH":"2026-01-25T00:00:04.000320","MEAN_MOTION":15.42946971,"ECCENTRICITY":0.00094265,"INCLINATION":53.047,"RA_OF_ASC_NODE":334.4225,"ARG_OF_PERICENTER":52.4217,"MEAN_ANOMALY":234.7698,"EPHEMERIS_TYPE":0,"CLASSIFICATION_TYPE":"U","NORAD_CAT_ID":46582,"ELEMENT_SET_NO":999,"REV_AT_EPOCH":588,"BSTAR":0.0021980594,"MEAN_MOTION_DOT":0.00099213,"MEAN_MOTION_DDOT":0},{"OBJECT_NAME":"STARLINK-1736","OBJECT_ID":"2020-070BF","EPOCH":"2026-01-24T02:41:08.687040","MEAN_MOTION":15.54899669,"ECCENTRICITY":0.00102787,"INCLINATION":53.0497,"RA_OF_ASC_NODE":333.4578,"ARG_OF_PERICENTER":48.4918,"MEAN_ANOMALY":311.6973,"EPHEMERIS_TYPE":0,"CLASSIFICATION_TYPE":"U","NORAD_CAT_ID":46585,"ELEMENT_SET_NO":999,"REV_AT_EPOCH":29339,"BSTAR":0.0013068137,"MEAN_MOTION_DOT":0.00089574,"MEAN_MOTION_DDOT":0},{"OBJECT_NAME":"STARLINK-1746","OBJECT_ID":"2020-070BJ","EPOCH":"2026-01-24T03:30:50.835744","MEAN_MOTION":15.53062566,"ECCENTRICITY":0.00100476,"INCLINATION":53.0483,"RA_OF_ASC_NODE":333.3056,"ARG_OF_PERICENTER":47.0378,"MEAN_ANOMALY":313.1472,"EPHEMERIS_TYPE":0,"CLASSIFICATION_TYPE":"U","NORAD_CAT_ID":46588,"ELEMENT_SET_NO":999,"REV_AT_EPOCH":29340,"BSTAR":0.0033847494,"MEAN_MOTION_DOT":0.00221281,"MEAN_MOTION_DDOT":0},{"OBJECT_NAME":"STARLINK-1716","OBJECT_ID":"2020-073C","EPOCH":"2026-01-24T11:26:38.328000","MEAN_MOTION":15.50760384,"ECCENTRICITY":0.00062454,"INCLINATION":53.0494,"RA_OF_ASC_NODE":55.824,"ARG_OF_PERICENTER":233.4525,"MEAN_ANOMALY":126.5908,"EPHEMERIS_TYPE":0,"CLASSIFICATION_TYPE":"U","NORAD_CAT_ID":46672,"ELEMENT_SET_NO":999,"REV_AT_EPOCH":29081,"BSTAR":0.0027760022,"MEAN_MOTION_DOT":0.00165652,"MEAN_MOTION_DDOT":0},{"OBJECT_NAME":"STARLINK-1718","OBJECT_ID":"2020-073E","EPOCH":"2026-01-25T00:00:04.000320","MEAN_MOTION":15.25602104,"ECCENTRICITY":0.00013806,"INCLINATION":53.0535,"RA_OF_ASC_NODE":76.9436,"ARG_OF_PERICENTER":112.0921,"MEAN_ANOMALY":335.4785,"EPHEMERIS_TYPE":0,"CLASSIFICATION_TYPE":"U","NORAD_CAT_ID":46674,"ELEMENT_SET_NO":999,"REV_AT_EPOCH":570,"BSTAR":0.062878183,"MEAN_MOTION_DOT":0.01773348,"MEAN_MOTION_DDOT":0},{"OBJECT_NAME":"STARLINK-1775","OBJECT_ID":"2020-073M","EPOCH":"2026-01-25T00:00:04.000320","MEAN_MOTION":15.59584076,"ECCENTRICITY":0.00055449,"INCLINATION":53.0486,"RA_OF_ASC_NODE":66.2013,"ARG_OF_PERICENTER":296.3851,"MEAN_ANOMALY":87.9819,"EPHEMERIS_TYPE":0,"CLASSIFICATION_TYPE":"U","NORAD_CAT_ID":46681,"ELEMENT_SET_NO":999,"REV_AT_EPOCH":593,"BSTAR":0.0028366532,"MEAN_MOTION_DOT":0.00236289,"MEAN_MOTION_DDOT":0},{"OBJECT_NAME":"STARLINK-1781","OBJECT_ID":"2020-073R","EPOCH":"2026-01-25T00:00:04.000320","MEAN_MOTION":15.25032339,"ECCENTRICITY":0.00012174,"INCLINATION":53.054,"RA_OF_ASC_NODE":92.0876,"ARG_OF_PERICENTER":80.2547,"MEAN_ANOMALY":71.9676,"EPHEMERIS_TYPE":0,"CLASSIFICATION_TYPE":"U","NORAD_CAT_ID":46685,"ELEMENT_SET_NO":999,"REV_AT_EPOCH":565,"BSTAR":0.014714419,"MEAN_MOTION_DOT":0.00392571,"MEAN_MOTION_DDOT":0},{"OBJECT_NAME":"STARLINK-1784","OBJECT_ID":"2020-073T","EPOCH":"2026-01-25T00:00:04.000320","MEAN_MOTION":15.49362123,"ECCENTRICITY":0.00016383,"INCLINATION":53.0501,"RA_OF_ASC_NODE":38.2458,"ARG_OF_PERICENTER":76.576,"MEAN_ANOMALY":163.1297,"EPHEMERIS_TYPE":0,"CLASSIFICATION_TYPE":"U","NORAD_CAT_ID":46687,"ELEMENT_SET_NO":999,"REV_AT_EPOCH":591,"BSTAR":0.0031724817,"MEAN_MOTION_DOT":0.00180481,"MEAN_MOTION_DDOT":0},{"OBJECT_NAME":"STARLINK-1788","OBJECT_ID":"2020-073V","EPOCH":"2026-01-24T12:45:38.113632","MEAN_MOTION":15.51610434,"ECCENTRICITY":0.00035991,"INCLINATION":53.0484,"RA_OF_ASC_NODE":72.6321,"ARG_OF_PERICENTER":309.9878,"MEAN_ANOMALY":50.0814,"EPHEMERIS_TYPE":0,"CLASSIFICATION_TYPE":"U","NORAD_CAT_ID":46689,"ELEMENT_SET_NO":999,"REV_AT_EPOCH":29182,"BSTAR":0.0023258491,"MEAN_MOTION_DOT":0.00142511,"MEAN_MOTION_DDOT":0},{"OBJECT_NAME":"STARLINK-1789","OBJECT_ID":"2020-073W","EPOCH":"2026-01-25T00:00:04.000320","MEAN_MOTION":15.78256758,"ECCENTRICITY":0.00060484,"INCLINATION":53.0435,"RA_OF_ASC_NODE":25.8457,"ARG_OF_PERICENTER":56.2649,"MEAN_ANOMALY":162.3522,"EPHEMERIS_TYPE":0,"CLASSIFICATION_TYPE":"U","NORAD_CAT_ID":46690,"ELEMENT_SET_NO":999,"REV_AT_EPOCH":591,"BSTAR":0.0024454529,"MEAN_MOTION_DOT":0.00451457,"MEAN_MOTION_DDOT":0},{"OBJECT_NAME":"STARLINK-1790","OBJECT_ID":"2020-073X","EPOCH":"2026-01-25T00:00:04.000320","MEAN_MOTION":15.57103142,"ECCENTRICITY":0.0007124,"INCLINATION":53.0482,"RA_OF_ASC_NODE":53.267,"ARG_OF_PERICENTER":336.5688,"MEAN_ANOMALY":111.2172,"EPHEMERIS_TYPE":0,"CLASSIFICATION_TYPE":"U","NORAD_CAT_ID":46691,"ELEMENT_SET_NO":999,"REV_AT_EPOCH":591,"BSTAR":0.0028956984,"MEAN_MOTION_DOT":0.00219293,"MEAN_MOTION_DDOT":0},{"OBJECT_NAME":"STARLINK-1795","OBJECT_ID":"2020-073AC","EPOCH":"2026-01-24T07:41:26.528352","MEAN_MOTION":15.5423917,"ECCENTRICITY":0.00065489,"INCLINATION":53.0473,"RA_OF_ASC_NODE":37.2522,"ARG_OF_PERICENTER":328.3746,"MEAN_ANOMALY":31.6869,"EPHEMERIS_TYPE":0,"CLASSIFICATION_TYPE":"U","NORAD_CAT_ID":46696,"ELEMENT_SET_NO":999,"REV_AT_EPOCH":29105,"BSTAR":0.0012363302,"MEAN_MOTION_DOT":0.00082507,"MEAN_MOTION_DDOT":0},{"OBJECT_NAME":"STARLINK-1797","OBJECT_ID":"2020-073AE","EPOCH":"2026-01-24T12:16:24.861504","MEAN_MOTION":15.45226826,"ECCENTRICITY":0.00043964,"INCLINATION":53.0475,"RA_OF_ASC_NODE":60.6923,"ARG_OF_PERICENTER":290.2489,"MEAN_ANOMALY":69.8044,"EPHEMERIS_TYPE":0,"CLASSIFICATION_TYPE":"U","NORAD_CAT_ID":46698,"ELEMENT_SET_NO":999,"REV_AT_EPOCH":29074,"BSTAR":0.00097969425,"MEAN_MOTION_DOT":0.0004717,"MEAN_MOTION_DDOT":0}]
