STARLINK-1677           
1 46576U 20070AW  26024.87050877  .00067911  00000+0  12375-2 0  9996
2 46576  53.0480 336.4396 0009040  44.6624 315.5110 15.48825453293424
STARLINK-1683           
1 46578U 20070AY  26024.01589100  .00212715  00000+0  23243-2 0  9990
2 46578  53.0179 293.0802 0007447 108.2913 251.8910 15.62105365293955
STARLINK-1712           
1 46581U 20070BB  26025.00004630  .00218547  00000+0  17619-2 0  9993
2 46581  53.0432 300.7810 0014820 100.0950 280.4165 15.69574691  5747
STARLINK-1728           
1 46582U 20070BC  26025.00004630  .00099213  00000+0  21981-2 0  9998
2 46582  53.0470 334.4225 0009426  52.4217 234.7698 15.42946971  5889
STARLINK-1736           
1 46585U 20070BF  26024.11190610  .00089574  00000+0  13068-2 0  9992
2 46585  53.0497 333.4578 0010278  48.4918 311.6973 15.54899669293391
STARLINK-1746           
1 46588U 20070BJ  26024.14642171  .00221281  00000+0  33847-2 0  9992
2 46588  53.0483 333.3056 0010047  47.0378 313.1472 15.53062566293408
STARLINK-1716           
1 46672U 20073C   26024.47683250  .00165652  00000+0  27760-2 0  9994
2 46672  53.0494  55.8240 0006245 233.4525 126.5908 15.50760384290817
STARLINK-1718           
1 46674U 20073E   26025.00004630  .01773348  00000+0  62878-1 0  9991
2 46674  53.0535  76.9436 0001380 112.0921 335.4785 15.25602104  5706
STARLINK-1775           
1 46681U 20073M   26025.00004630  .00236289  00000+0  28367-2 0  9992
2 46681  53.0486  66.2013 0005544 296.3851  87.9819 15.59584076  5932
STARLINK-1781           
1 46685U 20073R   26025.00004630  .00392571  00000+0  14714-1 0  9993
2 46685  53.0540  92.0876 0001217  80.2547  71.9676 15.25032339  5652
STARLINK-1784           
1 46687U 20073T   26025.00004630  .00180481  00000+0  31725-2 0  9992
2 46687  53.0501  38.2458 0001638  76.5760 163.1297 15.49362123  5916
STARLINK-1788           
1 46689U 20073V   26024.53169113  .00142511  00000+0  23258-2 0  9993
2 46689  53.0484  72.6321 0003599 309.9878  50.0814 15.51610434291820
STARLINK-1789           
1 46690U 20073W   26025.00004630  .00451457  00000+0  24455-2 0  9992
2 46690  53.0435  25.8457 0006048  56.2649 162.3522 15.78256758  5918
STARLINK-1790           
1 46691U 20073X   26025.00004630  .00219293  00000+0  28957-2 0  9994
2 46691  53.0482  53.2670 0007124 336.5688 111.2172 15.57103142  5915
STARLINK-1795           
1 46696U 20073AC  26024.32044593  .00082507  00000+0  12363-2 0  9995
2 46696  53.0473  37.2522 0006548 328.3746  31.6869 15.54239170291059
STARLINK-1797           
1 46698U 20073AE  26024.51139886  .00047170  00000+0  97969-3 0  9991
2 46698  53.0475  60.6923 0004396 290.2489  69.8044 15.45226826290745
